[{"OBJECT_NAME":"STARLINK-5057","OBJECT_ID":"2022-119Y","EPOCH":"2026-03-09T21:26:51.021312","MEAN_MOTION":15.0882864,"ECCENTRICITY":0.00013037,"INCLINATION":53.2176,"RA_OF_ASC_NODE":313.3455,"ARG_OF_PERICENTER":81.8663,"MEAN_ANOMALY":278.2477,"EPHEMERIS_TYPE":0,"CLASSIFICATION_TYPE":"U","NORAD_CAT_ID":53908,"ELEMENT_SET_NO":999,"REV_AT_EPOCH":19185,"BSTAR":-8.2039681e-5,"MEAN_MOTION_DOT":-1.593e-5,"MEAN_MOTION_DDOT":0},{"OBJECT_NAME":"DISKSAT D","OBJECT_ID":"2025-305C","EPOCH":"2026-03-09T13:15:42.202656","MEAN_MOTION":15.07416577,"ECCENTRICITY":0.00037124,"INCLINATION":45.0023,"RA_OF_ASC_NODE":251.6339,"ARG_OF_PERICENTER":319.2749,"MEAN_ANOMALY":40.7848,"EPHEMERIS_TYPE":0,"CLASSIFICATION_TYPE":"U","NORAD_CAT_ID":67221,"ELEMENT_SET_NO":999,"REV_AT_EPOCH":1227,"BSTAR":0.00076840651,"MEAN_MOTION_DOT":0.00011599,"MEAN_MOTION_DDOT":0}]
